NORAD_CAT_ID,OBJECT_NAME,OBJECT_TYPE,EPOCH,MEAN_MOTION,ECCENTRICITY,INCLINATION,RA_OF_ASC_NODE,ARG_OF_PERICENTER,MEAN_ANOMALY,BSTAR,MEAN_MOTION_DOT,MEAN_MOTION_DDOT,TLE_LINE0,TLE_LINE1,TLE_LINE2,SEMIMAJOR_AXIS,PERIOD,APOGEE,PERIGEE,DECAYED
54174.0,STARLINK-5248,PAYLOAD,2023-05-03 22:00:00,15.10498965,0.0001306,53.2115,301.0862,83.0159,179.6581,-0.056101,-0.00868358,0.0,0 STARLINK-5248,1 54174U 22141T   23123.91667824 -.00868358  00000-0 -56101-1 0  9999,2 54174  53.2115 301.0862 0001306  83.0159 179.6581 15.10498965 29507,6912.814,95.333,535.582,533.776,0.0
54174.0,STARLINK-5248,PAYLOAD,2023-05-04 14:00:01,15.09069845,0.0001324,53.2118,298.0866,88.1792,200.2424,-0.02455,-0.00373554,0.0,0 STARLINK-5248,1 54174U 22141T   23124.58335648 -.00373554  00000-0 -24550-1 0  9991,2 54174  53.2118 298.0866 0001324  88.1792 200.2424 15.09069845 29605,6917.178,95.423,539.959,538.127,0.0
54174.0,STARLINK-5248,PAYLOAD,2023-05-04 22:00:01,15.08807023,0.0001384,53.2119,296.5911,79.9192,220.2184,0.0025475,0.00040452,0.0,0 STARLINK-5248,1 54174U 22141T   23124.91668981  .00040452  00000-0  25475-2 0  9991,2 54174  53.2119 296.5911 0001384  79.9192 220.2184 15.08807023 29655,6917.981,95.44,540.804,538.889,0.0
54174.0,STARLINK-5248,PAYLOAD,2023-05-05 14:00:01,15.08853402,0.0001302,53.2137,293.5966,86.4766,236.7251,-0.0011385,-0.00018368,0.0,0 STARLINK-5248,1 54174U 22141T   23125.58334491 -.00018368  00000-0 -11385-2 0  9999,2 54174  53.2137 293.5966 0001302  86.4766 236.7251 15.08853402 29752,6917.839,95.437,540.605,538.804,0.0
54174.0,STARLINK-5248,PAYLOAD,2023-05-05 22:00:00,15.08816928,0.0001293,53.2139,292.1014,76.6588,258.1526,0.0026048,0.00041385,0.0,0 STARLINK-5248,1 54174U 22141T   23125.91667824  .00041385  00000-0  26048-2 0  9990,2 54174  53.2139 292.1014 0001293  76.6588 258.1526 15.08816928  1301,6917.951,95.439,540.71,538.921,0.0
54174.0,STARLINK-5248,PAYLOAD,2023-05-06 16:00:00,15.0884239,0.0001191,53.2149,288.7336,83.2402,7.591,-0.00061665,-0.00010089,0.0,0 STARLINK-5248,1 54174U 22141T   23126.66667824 -.00010089  00000-0 -61665-3 0  9997,2 54174  53.2149 288.7336 0001191  83.2402   7.5910 15.08842390  1301,6917.873,95.437,540.562,538.914,0.0
54174.0,STARLINK-5248,PAYLOAD,2023-05-07 06:00:00,15.08828919,0.0001067,53.2155,286.1135,90.9841,290.1551,0.0036339,0.00058004,0.0,0 STARLINK-5248,1 54174U 22141T   23127.25001157  .00058004  00000-0  36339-2 0  9990,2 54174  53.2155 286.1135 0001067  90.9841 290.1551 15.08828919 30002,6917.914,95.438,540.517,539.041,0.0
54174.0,STARLINK-5248,PAYLOAD,2023-05-07 14:00:01,15.08883475,0.0001185,53.2157,284.6179,83.9128,308.804,-0.0013707,-0.00022062,0.0,0 STARLINK-5248,1 54174U 22141T   23127.58334491 -.00022062  00000-0 -13707-2 0  9997,2 54174  53.2157 284.6179 0001185  83.9128 308.8040 15.08883475  1305,6917.748,95.435,540.432,538.793,0.0
54174.0,STARLINK-5248,PAYLOAD,2023-05-07 22:00:00,15.0882826,0.0001138,53.2156,283.1224,86.4202,317.9559,0.00092663,0.00014485,0.0,0 STARLINK-5248,1 54174U 22141T   23127.91667824  .00014485  00000-0  92663-3 0  9990,2 54174  53.2156 283.1224 0001138  86.4202 317.9559 15.08828260 30105,6917.916,95.438,540.569,538.994,0.0
54174.0,STARLINK-5248,PAYLOAD,2023-05-08 13:42:08,15.08834946,0.000106,53.2157,280.1826,98.6283,261.4829,0.00015578,2.192e-05,0.0,0 STARLINK-5248,1 54174U 22141T   23128.57093444  .00002192  00000-0  15578-3 0  9996,2 54174  53.2157 280.1826 0001060  98.6283 261.4829 15.08834946 30212,6917.896,95.438,540.494,539.028,0.0
54174.0,STARLINK-5248,PAYLOAD,2023-05-10 02:16:01,15.08837929,0.000108,53.2158,273.3461,81.8343,278.2771,-6.9596e-05,-1.395e-05,0.0,0 STARLINK-5248,1 54174U 22141T   23130.09445868 -.00001395  00000-0 -69596-4 0  9993,2 54174  53.2158 273.3461 0001080  81.8343 278.2771 15.08837929 30446,6917.887,95.438,540.499,539.005,0.0
54174.0,STARLINK-5248,PAYLOAD,2023-05-10 18:09:51,15.08853598,0.0001067,53.216,270.3708,89.5518,270.5596,2.0906e-05,4.5e-07,0.0,0 STARLINK-5248,1 54174U 22141T   23130.75684457  .00000045  00000-0  20906-4 0  9996,2 54174  53.2160 270.3708 0001067  89.5518 270.5596 15.08853598 30534,6917.839,95.437,540.442,538.966,0.0
54174.0,STARLINK-5248,PAYLOAD,2023-05-11 14:49:53,15.08834338,0.0001279,53.2158,266.5048,86.681,273.4328,-1.1398e-05,-4.69e-06,0.0,0 STARLINK-5248,1 54174U 22141T   23131.61798061 -.00000469  00000-0 -11398-4 0  9996,2 54174  53.2158 266.5048 0001279  86.6810 273.4328 15.08834338 30663,6917.898,95.438,540.647,538.878,0.0
54174.0,STARLINK-5248,PAYLOAD,2023-05-11 16:25:16,15.08837505,0.0001349,53.2163,266.2076,73.2791,286.8349,1.608e-05,-3.2e-07,0.0,0 STARLINK-5248,1 54174U 22141T   23131.68421854 -.00000032  00000-0  16080-4 0  9994,2 54174  53.2163 266.2076 0001349  73.2791 286.8349 15.08837505 30687,6917.888,95.438,540.686,538.82,0.0
54174.0,STARLINK-5248,PAYLOAD,2023-05-12 01:57:35,15.08838169,0.000133,53.2166,264.4237,82.8121,277.3022,-1.0866e-05,-4.61e-06,0.0,0 STARLINK-5248,1 54174U 22141T   23132.08165909 -.00000461  00000-0 -10866-4 0  9998,2 54174  53.2166 264.4237 0001330  82.8121 277.3022 15.08838169 30749,6917.886,95.438,540.671,538.831,0.0
54174.0,STARLINK-5248,PAYLOAD,2023-05-12 16:16:03,15.0884678,0.000119,53.2168,261.7474,87.3473,272.7655,-2.8378e-05,-7.4e-06,0.0,0 STARLINK-5248,1 54174U 22141T   23132.67781547 -.00000740  00000-0 -28378-4 0  9992,2 54174  53.2168 261.7474 0001190  87.3473 272.7655 15.08846780 30826,6917.86,95.437,540.548,538.901,0.0
54174.0,STARLINK-5248,PAYLOAD,2023-05-13 01:48:22,15.08824659,0.0001282,53.217,259.959,87.5676,272.5463,0.0001254,1.708e-05,0.0,0 STARLINK-5248,1 54174U 22141T   23133.07526386  .00001708  00000-0  12540-3 0  9991,2 54174  53.2170 259.9590 0001282  87.5676 272.5463 15.08824659 30888,6917.927,95.439,540.679,538.905,0.0
54174.0,STARLINK-5248,PAYLOAD,2023-05-13 12:56:04,15.08835218,0.000125,53.2173,257.8772,89.3209,270.7927,-5.8745e-05,-1.223e-05,0.0,0 STARLINK-5248,1 54174U 22141T   23133.53894499 -.00001223  00000-0 -58745-4 0  9997,2 54174  53.2173 257.8772 0001250  89.3209 270.7927 15.08835218 30964,6917.895,95.438,540.625,538.895,0.0
54174.0,STARLINK-5248,PAYLOAD,2023-05-13 14:31:27,15.08827016,0.0001198,53.2172,257.5801,86.2018,273.9111,6.6211e-05,7.66e-06,0.0,0 STARLINK-5248,1 54174U 22141T   23133.60518484  .00000766  00000-0  66211-4 0  9998,2 54174  53.2172 257.5801 0001198  86.2018 273.9111 15.08827016 30976,6917.92,95.438,540.614,538.956,0.0
54174.0,STARLINK-5248,PAYLOAD,2023-05-14 01:39:09,15.08837536,0.000141,53.2175,255.5024,81.5433,278.5719,1.3566e-05,-7.2e-07,0.0,0 STARLINK-5248,1 54174U 22141T   23134.06886261 -.00000072  00000-0  13566-4 0  9996,2 54174  53.2175 255.5024 0001410  81.5433 278.5719 15.08837536 31031,6917.888,95.438,540.728,538.777,0.0
54174.0,STARLINK-5248,PAYLOAD,2023-05-14 14:22:14,15.08846633,0.0001391,53.2175,253.1226,78.7161,281.3988,-2.9515e-05,-7.58e-06,0.0,0 STARLINK-5248,1 54174U 22141T   23134.59877879 -.00000758  00000-0 -29515-4 0  9992,2 54174  53.2175 253.1226 0001391  78.7161 281.3988 15.08846633 31121,6917.86,95.437,540.687,538.763,0.0
54174.0,STARLINK-5248,PAYLOAD,2023-05-14 15:57:37,15.08848084,0.0001382,53.2177,252.8244,82.7408,277.3742,-1.5159e-05,-5.29e-06,0.0,0 STARLINK-5248,1 54174U 22141T   23134.66501684 -.00000529  00000-0 -15159-4 0  9993,2 54174  53.2177 252.8244 0001382  82.7408 277.3742 15.08848084 31123,6917.856,95.437,540.677,538.765,0.0
54174.0,STARLINK-5248,PAYLOAD,2023-05-15 12:37:39,15.08821813,0.0001167,53.2169,248.9585,93.696,266.4165,0.00017313,2.467e-05,0.0,0 STARLINK-5248,1 54174U 22141T   23135.52614626  .00002467  00000-0  17313-3 0  9994,2 54174  53.2169 248.9585 0001167  93.6960 266.4165 15.08821813 31256,6917.936,95.439,540.608,538.994,0.0
54174.0,STARLINK-5248,PAYLOAD,2023-05-15 14:13:01,15.0883469,0.0001193,53.2163,248.6623,87.4363,272.6765,4.4203e-05,4.16e-06,0.0,0 STARLINK-5248,1 54174U 22141T   23135.59238249  .00000416  00000-0  44203-4 0  9995,2 54174  53.2163 248.6623 0001193  87.4363 272.6765 15.08834690 31271,6917.897,95.438,540.587,538.936,0.0
54174.0,STARLINK-5248,PAYLOAD,2023-05-16 12:28:25,15.08834638,9.83e-05,53.216,244.5003,85.6645,274.446,9.0889e-06,-1.43e-06,0.0,0 STARLINK-5248,1 54174U 22141T   23136.51974437 -.00000143  00000-0  90889-5 0  9994,2 54174  53.2160 244.5003 0000983  85.6645 274.4460 15.08834638 31414,6917.897,95.438,540.442,539.082,0.0
54174.0,STARLINK-5248,PAYLOAD,2023-05-17 10:43:49,15.08832361,0.0001091,53.216,240.3371,86.5961,273.5156,9.292e-05,1.191e-05,0.0,0 STARLINK-5248,1 54174U 22141T   23137.44710409  .00001191  00000-0  92920-4 0  9994,2 54174  53.2160 240.3371 0001091  86.5961 273.5156 15.08832361 31545,6917.904,95.438,540.523,539.014,0.0
54174.0,STARLINK-5248,PAYLOAD,2023-05-17 12:19:13,15.08825727,0.000103,53.2159,240.0401,85.3608,274.7501,0.00019033,2.741e-05,0.0,0 STARLINK-5248,1 54174U 22141T   23137.51334550  .00002741  00000-0  19033-3 0  9996,2 54174  53.2159 240.0401 0001030  85.3608 274.7501 15.08825727 31569,6917.924,95.438,540.502,539.076,0.0
54174.0,STARLINK-5248,PAYLOAD,2023-05-18 12:10:00,15.08830298,0.000113,53.216,235.5796,98.5248,261.5872,-3.1744e-05,-7.93e-06,0.0,0 STARLINK-5248,1 54174U 22141T   23138.50695118 -.00000793  00000-0 -31744-4 0  9997,2 54174  53.2160 235.5796 0001130  98.5248 261.5872 15.08830298 31704,6917.91,95.438,540.557,538.993,0.0
54174.0,STARLINK-5248,PAYLOAD,2023-05-18 23:17:42,15.08835369,0.0001279,53.2187,233.5008,101.3979,258.7157,-1.2348e-05,-4.84e-06,0.0,0 STARLINK-5248,1 54174U 22141T   23138.97062906 -.00000484  00000-0 -12348-4 0  9997,2 54174  53.2187 233.5008 0001279 101.3979 258.7157 15.08835369 31770,6917.895,95.438,540.644,538.875,0.0
54174.0,STARLINK-5248,PAYLOAD,2023-05-19 05:39:14,15.08802668,0.0001332,53.2178,232.3101,89.4279,270.6866,0.00048915,7.498e-05,0.0,0 STARLINK-5248,1 54174U 22141T   23139.23558592  .00007498  00000-0  48915-3 0  9996,2 54174  53.2178 232.3101 0001332  89.4279 270.6866 15.08802668 31811,6917.995,95.44,540.781,538.938,0.0
